STARLINK-31973          
1 59943U 24106X   26068.12201786 -.00001228  00000+0 -35144-4 0  9997
2 59943  43.0021 335.9351 0000602 246.2423 113.8366 15.27567779100434
FLOCK 4G-25             
1 62646U 25009AP  26068.74572546  .00010373  00000+0  38902-3 0  9990
2 62646  97.4049 151.4141 0000828 316.3151  43.8023 15.27424196 63734
